{
  "type": "FeatureCollection",
  "features": [
    {
      "type": "Feature",
      "properties": {
        "norad_id": 39773,
        "name": "EUTELSAT 3B",
        "group": "eutelsat",
        "lat": -0.00957108238690896,
        "lon": 167.1216874355842,
        "alt_km": 35776.46583804049,
        "timestamp": "2025-12-09T05:43:20.399384+00:00",
        "meta_object_name": "EUTELSAT 3B",
        "meta_object_id": "2014-030A",
        "meta_epoch": "2025-12-08T18:45:16.248384",
        "meta_mean_motion": 1.00271222,
        "meta_eccentricity": 0.0004785,
        "meta_inclination": 0.0638,
        "meta_ra_of_asc_node": 340.3118,
        "meta_arg_of_pericenter": 247.7629,
        "meta_mean_anomaly": 134.132,
        "meta_ephemeris_type": 0,
        "meta_classification_type": "U",
        "meta_norad_cat_id": 39773,
        "meta_element_set_no": 999,
        "meta_rev_at_epoch": 4215,
        "meta_bstar": 0,
        "meta_mean_motion_dot": 2.2e-07,
        "meta_mean_motion_ddot": 0,
        "tle_line1": "1 39773U 14030A   25342.78143806  .00000022  00000+0  00000+0 0  9992",
        "tle_line2": "2 39773   0.0638 340.3118 0004785 247.7629 134.1320  1.00271222 42152"
      },
      "geometry": {
        "type": "Point",
        "coordinates": [
          167.1216874355842,
          -0.00957108238690896
        ]
      }
    },
    {
      "type": "Feature",
      "properties": {
        "norad_id": 40425,
        "name": "EUTELSAT 115 WEST B",
        "group": "eutelsat",
        "lat": -0.012460221666049908,
        "lon": 49.15003687207039,
        "alt_km": 35788.47476270459,
        "timestamp": "2025-12-09T05:43:20.399396+00:00",
        "meta_object_name": "EUTELSAT 115 WEST B",
        "meta_object_id": "2015-010B",
        "meta_epoch": "2025-12-08T16:28:50.714112",
        "meta_mean_motion": 1.0026292,
        "meta_eccentricity": 4.51e-05,
        "meta_inclination": 0.0073,
        "meta_ra_of_asc_node": 153.6878,
        "meta_arg_of_pericenter": 343.34,
        "meta_mean_anomaly": 72.981,
        "meta_ephemeris_type": 0,
        "meta_classification_type": "U",
        "meta_norad_cat_id": 40425,
        "meta_element_set_no": 999,
        "meta_rev_at_epoch": 3948,
        "meta_bstar": 0,
        "meta_mean_motion_dot": -2.2e-07,
        "meta_mean_motion_ddot": 0,
        "tle_line1": "1 40425U 15010B   25342.68669808 -.00000022  00000+0  00000+0 0  9992",
        "tle_line2": "2 40425   0.0073 153.6878 0000451 343.3400  72.9810  1.00262920 39485"
      },
      "geometry": {
        "type": "Point",
        "coordinates": [
          49.15003687207039,
          -0.012460221666049908
        ]
      }
    },
    {
      "type": "Feature",
      "properties": {
        "norad_id": 40875,
        "name": "EUTELSAT 8 WEST B",
        "group": "eutelsat",
        "lat": 0.028684116358845838,
        "lon": 156.03163994044863,
        "alt_km": 35790.11933122677,
        "timestamp": "2025-12-09T05:43:20.399407+00:00",
        "meta_object_name": "EUTELSAT 8 WEST B",
        "meta_object_id": "2015-039B",
        "meta_epoch": "2025-12-08T18:42:09.047232",
        "meta_mean_motion": 1.00271451,
        "meta_eccentricity": 0.0004145,
        "meta_inclination": 0.0646,
        "meta_ra_of_asc_node": 359.1923,
        "meta_arg_of_pericenter": 259.8544,
        "meta_mean_anomaly": 91.2858,
        "meta_ephemeris_type": 0,
        "meta_classification_type": "U",
        "meta_norad_cat_id": 40875,
        "meta_element_set_no": 999,
        "meta_rev_at_epoch": 3774,
        "meta_bstar": 0,
        "meta_mean_motion_dot": -6.3e-07,
        "meta_mean_motion_ddot": 0,
        "tle_line1": "1 40875U 15039B   25342.77927138 -.00000063  00000+0  00000+0 0  9990",
        "tle_line2": "2 40875   0.0646 359.1923 0004145 259.8544  91.2858  1.00271451 37740"
      },
      "geometry": {
        "type": "Point",
        "coordinates": [
          156.03163994044863,
          0.028684116358845838
        ]
      }
    },
    {
      "type": "Feature",
      "properties": {
        "norad_id": 41310,
        "name": "EUTELSAT 9B",
        "group": "eutelsat",
        "lat": 0.026105241692718637,
        "lon": 173.01893335939974,
        "alt_km": 35786.56498848773,
        "timestamp": "2025-12-09T05:43:20.399427+00:00",
        "meta_object_name": "EUTELSAT 9B",
        "meta_object_id": "2016-005A",
        "meta_epoch": "2025-12-08T18:47:01.080096",
        "meta_mean_motion": 1.0027199,
        "meta_eccentricity": 0.0004895,
        "meta_inclination": 0.035,
        "meta_ra_of_asc_node": 51.0952,
        "meta_arg_of_pericenter": 213.5895,
        "meta_mean_anomaly": 103.8639,
        "meta_ephemeris_type": 0,
        "meta_classification_type": "U",
        "meta_norad_cat_id": 41310,
        "meta_element_set_no": 999,
        "meta_rev_at_epoch": 3620,
        "meta_bstar": 0,
        "meta_mean_motion_dot": 6.4e-07,
        "meta_mean_motion_ddot": 0,
        "tle_line1": "1 41310U 16005A   25342.78265139  .00000064  00000+0  00000+0 0  9996",
        "tle_line2": "2 41310   0.0350  51.0952 0004895 213.5895 103.8639  1.00271990 36200"
      },
      "geometry": {
        "type": "Point",
        "coordinates": [
          173.01893335939974,
          0.026105241692718637
        ]
      }
    },
    {
      "type": "Feature",
      "properties": {
        "norad_id": 41382,
        "name": "EUTELSAT 65 WEST A",
        "group": "eutelsat",
        "lat": 0.06842405167284397,
        "lon": 98.8428753509989,
        "alt_km": 35796.771789738115,
        "timestamp": "2025-12-09T05:43:20.399455+00:00",
        "meta_object_name": "EUTELSAT 65 WEST A",
        "meta_object_id": "2016-014A",
        "meta_epoch": "2025-12-08T12:41:22.901856",
        "meta_mean_motion": 1.00271818,
        "meta_eccentricity": 0.00026162,
        "meta_inclination": 0.0497,
        "meta_ra_of_asc_node": 1.9264,
        "meta_arg_of_pericenter": 260.5786,
        "meta_mean_anomaly": 300.161,
        "meta_ephemeris_type": 0,
        "meta_classification_type": "U",
        "meta_norad_cat_id": 41382,
        "meta_element_set_no": 999,
        "meta_rev_at_epoch": 3562,
        "meta_bstar": 0,
        "meta_mean_motion_dot": -2.74e-06,
        "meta_mean_motion_ddot": 0,
        "tle_line1": "1 41382U 16014A   25342.52873729 -.00000274  00000+0  00000+0 0  9991",
        "tle_line2": "2 41382   0.0497   1.9264 0002616 260.5786 300.1610  1.00271818 35626"
      },
      "geometry": {
        "type": "Point",
        "coordinates": [
          98.8428753509989,
          0.06842405167284397
        ]
      }
    },
    {
      "type": "Feature",
      "properties": {
        "norad_id": 41589,
        "name": "EUTELSAT 117 WEST B",
        "group": "eutelsat",
        "lat": -0.011990462688356573,
        "lon": 47.05747206606643,
        "alt_km": 35785.86253979267,
        "timestamp": "2025-12-09T05:43:20.399473+00:00",
        "meta_object_name": "EUTELSAT 117 WEST B",
        "meta_object_id": "2016-038B",
        "meta_epoch": "2025-12-08T16:28:20.761824",
        "meta_mean_motion": 1.00268965,
        "meta_eccentricity": 4.33e-05,
        "meta_inclination": 0.0072,
        "meta_ra_of_asc_node": 147.2989,
        "meta_arg_of_pericenter": 317.1838,
        "meta_mean_anomaly": 103.2954,
        "meta_ephemeris_type": 0,
        "meta_classification_type": "U",
        "meta_norad_cat_id": 41589,
        "meta_element_set_no": 999,
        "meta_rev_at_epoch": 3475,
        "meta_bstar": 0,
        "meta_mean_motion_dot": -9e-08,
        "meta_mean_motion_ddot": 0,
        "tle_line1": "1 41589U 16038B   25342.68635141 -.00000009  00000+0  00000+0 0  9993",
        "tle_line2": "2 41589   0.0072 147.2989 0000433 317.1838 103.2954  1.00268965 34759"
      },
      "geometry": {
        "type": "Point",
        "coordinates": [
          47.05747206606643,
          -0.011990462688356573
        ]
      }
    },
    {
      "type": "Feature",
      "properties": {
        "norad_id": 42741,
        "name": "EUTELSAT 172B",
        "group": "eutelsat",
        "lat": -0.0035191824427861294,
        "lon": -23.928183418911743,
        "alt_km": 35785.886860403974,
        "timestamp": "2025-12-09T05:43:20.399486+00:00",
        "meta_object_name": "EUTELSAT 172B",
        "meta_object_id": "2017-029B",
        "meta_epoch": "2025-12-08T20:03:38.651328",
        "meta_mean_motion": 1.00270561,
        "meta_eccentricity": 1.62e-05,
        "meta_inclination": 0.0129,
        "meta_ra_of_asc_node": 88.9406,
        "meta_arg_of_pericenter": 207.2634,
        "meta_mean_anomaly": 254.5512,
        "meta_ephemeris_type": 0,
        "meta_classification_type": "U",
        "meta_norad_cat_id": 42741,
        "meta_element_set_no": 999,
        "meta_rev_at_epoch": 3182,
        "meta_bstar": 0,
        "meta_mean_motion_dot": -4e-08,
        "meta_mean_motion_ddot": 0,
        "tle_line1": "1 42741U 17029B   25342.83586402 -.00000004  00000+0  00000+0 0  9992",
        "tle_line2": "2 42741   0.0129  88.9406 0000162 207.2634 254.5512  1.00270561 31820"
      },
      "geometry": {
        "type": "Point",
        "coordinates": [
          -23.928183418911743,
          -0.0035191824427861294
        ]
      }
    }
  ]
}